UNKNOWN                 
1 81640U          23143.29450409  .00000321  00000+0  35469-3 0  9990
2 81640  65.8275 240.3583 0981084  96.3432 275.0062 12.55850204392677
UNKNOWN                 
1 81652U 76077    23140.09190750  .00000415  00000+0  56072-3 0  9992
2 81652 102.1601 184.2247 0375350 291.7067  96.2933 13.42115342452760
UNKNOWN                 
1 81661U          23142.73925378  .00017367  00000+0  36924-2 0  9997
2 81661  98.4282  66.9925 0055325 175.2395 184.9341 14.58137551399119
UNKNOWN                 
1 81667U          23142.80569573  .00002849  00000+0  91854-3 0  9995
2 81667  74.0446 333.5010 0018956 141.4635 218.7877 14.39571745321735
UNKNOWN                 
1 81674U          23138.92177295  .00000708  00000+0  47555-3 0  9998
2 81674  66.8239 200.8938 0029864 202.0314 332.1321 14.06259350481545
UNKNOWN                 
1 81678U          23142.76697134  .00076214  00000+0  51835-2 0  9998
2 81678  65.8346 318.3920 0029357 199.5046 172.3786 15.05513470509335
UNKNOWN                 
1 81683U          23142.11825553  .00003179  00000+0  87636-3 0  9990
2 81683  81.2219 192.6616 0028391 250.2004 109.6126 14.46452801500126
UNKNOWN                 
1 81693U 73086    23143.19391810  .00000636  00000+0  49502-2 0  9992
2 81693 101.1094 298.3444 0371757  45.8542 317.2461 12.23873447853345
UNKNOWN                 
1 81696U          23142.67194502  .00024724  00000+0  17653-2 0  9998
2 81696  97.4356  41.2563 0169922 128.7603 232.8942 14.93513730373743
UNKNOWN                 
1 81732U          23143.34365422  .00027246  00000+0  19799-2 0  9990
2 81732  65.7267 273.8979 0193382 341.2950  18.1127 14.89953923505712
UNKNOWN                 
1 81745U          23142.58159812  .00002748  00000+0  10339-2 0  9994
2 81745  71.0047 260.3939 0006976 233.2207 139.6123 14.32368928495486
UNKNOWN                 
1 81749U          23143.65568671  .00000073  00000+0  36335-3 0  9998
2 81749  99.6998 293.8405 0370599  92.5032 333.5634 12.77166968442747
UNKNOWN                 
1 81775U          23142.32199972  .00006685  00000+0  29098-2 0  9996
2 81775  82.9259 267.5898 0022541 224.9278 135.0082 14.23779146491443
UNKNOWN                 
1 81792U          23143.29353024  .00001818  00000+0  68912-3 0  9994
2 81792  65.8271  25.9848 0915063 336.3915  19.7498 13.05725034452906
UNKNOWN                 
1 81812U          23143.39940560  .00001885  00000+0  14416-1 0  9997
2 81812 103.5549 305.0016 0272980  32.1248 329.6121 12.30756242425313
UNKNOWN                 
1 81813U          23136.44203821  .00004043  00000+0  11091-2 0  9994
2 81813  99.0493  12.6975 0018506  47.7581 312.5176 14.47580802499061
UNKNOWN                 
1 81816U 77121    23143.36179196  .00001454  00000+0  12027-2 0  9994
2 81816  66.2382  97.1682 0172711  68.4762 293.4622 13.85155820479734
UNKNOWN                 
1 81817U          23142.69731885  .00047190  00000+0  38096-2 0  9992
2 81817  65.7204 245.6527 0226069 132.0546 230.0053 14.81697480507922
UNKNOWN                 
1 81818U          23134.84539909  .00003301  00000+0  69957-3 0  9991
2 81818  65.7515 310.0958 0655464 345.1875  13.0757 13.75200019518012
UNKNOWN                 
1 81819U          23140.63624858  .00000572  00000+0  42729-2 0  9998
2 81819 102.1923 214.7310 0035481  74.5980 285.9002 12.45995923431226
UNKNOWN                 
1 81824U          23143.24896105  .00004156  00000+0  19338-2 0  9992
2 81824  65.8507 337.1423 0037831 133.6957 226.7275 14.21190312491172
UNKNOWN                 
1 81833U          23142.50194936  .00000117  00000+0  40147-3 0  9999
2 81833  90.2519 342.0298 0026006 313.2313  46.6634 12.93194941331615
UNKNOWN                 
1 81838U          23141.47802608  .00003757  00000+0  11824-2 0  9993
2 81838  67.7658 159.4666 0040094 202.2135 307.6055 14.40880361497762
UNKNOWN                 
1 81844U          23143.46005204  .00006501  00000+0  30485-2 0  9992
2 81844  82.9209 317.8160 0080104 106.0635 254.9385 14.18327614489810
UNKNOWN                 
1 81845U          23143.07575140  .00002991  00000+0  39468-3 0  9991
2 81845  97.7399 355.9233 0102562 118.0034  39.6506 14.77135487511198
UNKNOWN                 
1 81864U          23142.54637890  .00003389  00000+0  14051-2 0  9996
2 81864  65.6757  83.4304 0778080  56.2994 310.9767 13.27250176426483
UNKNOWN                 
1 81865U 87062    23143.01391299  .00001228  00000+0  10754-2 0  9999
2 81865  82.8092  27.5520 0068610 130.9700 294.4925 13.83802927479087
UNKNOWN                 
1 81872U          23143.54328265  .00292225  00000+0  84218-2 0  9990
2 81872  61.9383 290.1009 1090901  54.0777 315.6581 13.37092291237692
UNKNOWN                 
1 81877U          23137.17293461  .00000313  00000+0  50778-3 0  9996
2 81877  65.9303 107.7785 0066642 187.4383 172.5691 13.60912559999966
UNKNOWN                 
1 81893U 70025    23143.25136408  .00001529  00000+0  16938-2 0  9990
2 81893  99.9634  71.6998 0018529 140.0494 220.2019 13.73429548475657
UNKNOWN                 
1 81899U          23142.59844432  .00001618  00000+0  39792-2 0  9993
2 81899 102.4330  67.0704 0186646  23.7058 337.2512 13.17020955455729
UNKNOWN                 
1 81902U          23138.20063095  .00018856  00000+0  17854-2 0  9996
2 81902  81.6150  98.1471 0197135 263.6704  94.2023 14.79927224501101
UNKNOWN                 
1 81921U          23140.01555253  .00002551  00000+0  10758-2 0  9992
2 81921  65.7092  11.6568 0873682 153.3745 211.5056 13.09069535905523
UNKNOWN                 
1 81946U 87079    23141.79091464  .00000128  00000+0  60215-3 0  9997
2 81946  66.4199 151.8802 0664752  83.7049  82.0158 12.42103809431610
UNKNOWN                 
1 81947U          23142.64422068  .00004320  00000+0  47512-3 0  9993
2 81947  66.0812 223.2168 0446678 348.6706  10.4580 14.36150032495985
UNKNOWN                 
1 81964U          23143.18843278  .00000353  00000+0  31958-3 0  9991
2 81964  66.5865  57.7324 0039968 333.2354  26.6662 13.94781385483666
UNKNOWN                 
1 81969U          23143.42708767  .00004953  00000+0  51432-3 0  9995
2 81969  86.6718 193.5001 0006923 299.1253  60.9281 14.89733314300227
UNKNOWN                 
1 81995U          23142.64363021  .00007688  00000+0  17741-2 0  9999
2 81995  65.7555  15.5663 0573166  39.3084 324.8164 13.86574066473792
UNKNOWN                 
1 82039U          23140.65657690  .00030369  00000+0  52345-2 0  9997
2 82039  99.0539 213.3445 0032058  41.8484 318.5160 14.68094622420516
UNKNOWN                 
1 82043U          23142.06741085  .00002695  00000+0  84109-3 0  9996
2 82043  97.9307   6.4468 0255842   0.4083 359.7261 14.24450790440291
UNKNOWN                 
1 82044U          23143.01887765  .00001557  00000+0  16442-2 0  9999
2 82044  99.9098 228.2047 0068670 169.5744 190.6846 13.75302247433347
UNKNOWN                 
1 82051U          23141.03450069  .00005946  00000+0  25572-2 0  9990
2 82051  98.7960 211.2804 0115997 111.0012 250.3620 14.21441694438710
UNKNOWN                 
1 82073U          23142.23468409  .00003726  00000+0  11108-2 0  9998
2 82073  97.7036 304.0275 0234729 240.6435 117.1123 14.28834544441060
UNKNOWN                 
1 82139U          23143.35088211  .00003007  00000+0  17180-2 0  9992
2 82139  99.0909 191.1883 0093865 150.1057 210.5519 14.08169178348285
UNKNOWN                 
1 82162U          23141.87451512  .00002740  00000+0  46961-2 0  9993
2 82162 100.4010  11.5798 0057897 332.9909  26.8210 13.44931450378123
UNKNOWN                 
1 82189U          23143.21395631  .00000379  00000+0  14500-3 0  9992
2 82189  74.0345 320.1107 0016454  15.9580 344.2087 14.34006267498401
UNKNOWN                 
1 82199U          23143.17048503  .00000629  00000+0  54799-3 0  9993
2 82199  82.9690 215.5099 0039088 166.4800 222.7313 13.84123983480339
UNKNOWN                 
1 82205U          23142.85876486  .00003415  00000+0  88742-3 0  9995
2 82205  63.0060   1.3170 0567065 198.7415 159.1976 13.84182585478158
UNKNOWN                 
1 82223U          23143.50718209  .00002543  00000+0  15632-2 0  9994
2 82223  99.3906 344.2526 0075797  55.1838 305.6429 14.05145924317281
UNKNOWN                 
1 82227U          23138.86394596  .00000107  00000+0  11064-2 0  9999
2 82227 101.9218 109.0733 0004340  42.6428 349.4827 12.42075918524608
UNKNOWN                 
1 82250U          23142.23417685  .00003582  00000+0  22456-2 0  9993
2 82250  98.9380  46.8490 0080309 300.9642 217.9836 14.03582166484942
UNKNOWN                 
1 82272U          23143.26589114  .00000326  00000+0  11512-2 0  9992
2 82272  67.5243  91.5782 0762290 343.3749  14.3455 12.32529796156731
UNKNOWN                 
1 82284U          23143.03478889  .00012282  00000+0  39817-2 0  9998
2 82284  99.5563 354.8984 0092063 255.4994 103.5962 14.36693035537542
UNKNOWN                 
1 82285U          23141.90527534  .00005969  00000+0  57258-2 0  9998
2 82285 101.9955  15.0638 0332244 167.6080 193.3476 13.58857687468117
UNKNOWN                 
1 82295U          23141.23072024  .00001087  00000+0  44200-3 0  9995
2 82295  66.6222  82.8319 0127048 166.2762 194.1843 14.27023031445900
UNKNOWN                 
1 82303U          23143.21350683  .00018701  00000+0  34940-1 0  9994
2 82303  81.9322  51.5815 0075559   1.1153 151.6855 13.37730106387538
UNKNOWN                 
1 82311U          23143.18288010  .00000799  00000+0  12155-2 0  9996
2 82311  99.4955 226.5019 0114193 140.0824 220.8778 13.52687603423881
UNKNOWN                 
1 82363U          23141.00207746  .00000768  00000+0  13222-2 0  9991
2 82363  66.9402  37.5418 0457202  42.1888 321.3401 13.14272782167106
UNKNOWN                 
1 82369U 99025    23141.78882414  .00000497  00000+0  37344-3 0  9999
2 82369  98.9707 171.1766 0085008  41.4177 319.3389 13.97303206426422
UNKNOWN                 
1 82381U          23142.48669515  .00008109  00000+0  23387-2 0  9990
2 82381  98.4650 341.3314 0017415 146.9694 213.2588 14.44818432374396
